ONEWEB-0560             
1 55145U 23004F   25072.50539395  .00000117  00000+0  26411-3 0  9999
2 55145  87.9058  67.0832 0002106  79.6224 280.5146 13.18686576108998
ONEWEB-0565             
1 55146U 23004G   25072.49906207  .00000067  00000+0  13767-3 0  9992
2 55146  87.9053  67.1494 0001638  70.4259 289.7050 13.18686042108987
ONEWEB-0567             
1 55147U 23004H   25072.49274123  .00000058  00000+0  11454-3 0  9999
2 55147  87.9053  67.1059 0001938  73.5724 286.5621 13.18686235108982
ONEWEB-0569             
1 55148U 23004J   25072.43834973  .00005656  00000+0  15451-1 0  9997
2 55148  87.8917  51.7770 0002513  62.5698 297.5686 13.13432432109693
ONEWEB-0570             
1 55149U 23004K   25072.48008980  .00000100  00000+0  22114-3 0  9999
2 55149  87.9058  67.1106 0001231  86.1692 273.9581 13.18686157108979
ONEWEB-0571             
1 55150U 23004L   25072.47377998  .00000096  00000+0  20993-3 0  9995
2 55150  87.9058  67.1204 0001809  52.8184 307.3113 13.18686121108982
ONEWEB-0572             
1 55151U 23004M   25072.58679636  .00000022  00000+0  24639-4 0  9993
2 55151  87.9010  97.6203 0001703  89.3042 270.8284 13.17647221106820
ONEWEB-0573             
1 55152U 23004N   25072.46745600  .00000091  00000+0  19726-3 0  9992
2 55152  87.9054  67.1297 0001460  59.2334 300.8942 13.18685278108972
